[{"OBJECT_NAME":"ONEWEB-0411","OBJECT_ID":"2022-012B","EPOCH":"2026-03-05T11:19:59.973888","MEAN_MOTION":13.10375532,"ECCENTRICITY":0.0002401,"INCLINATION":87.8772,"RA_OF_ASC_NODE":56.9146,"ARG_OF_PERICENTER":91.9549,"MEAN_ANOMALY":268.1854,"EPHEMERIS_TYPE":0,"CLASSIFICATION_TYPE":"U","NORAD_CAT_ID":51623,"ELEMENT_SET_NO":999,"REV_AT_EPOCH":19570,"BSTAR":-0.0014878,"MEAN_MOTION_DOT":-5.07e-6,"MEAN_MOTION_DDOT":0},{"OBJECT_NAME":"ONEWEB-0415","OBJECT_ID":"2022-012C","EPOCH":"2026-03-05T11:15:13.474944","MEAN_MOTION":13.10373881,"ECCENTRICITY":0.0002179,"INCLINATION":87.8769,"RA_OF_ASC_NODE":56.9178,"ARG_OF_PERICENTER":88.4484,"MEAN_ANOMALY":271.6893,"EPHEMERIS_TYPE":0,"CLASSIFICATION_TYPE":"U","NORAD_CAT_ID":51624,"ELEMENT_SET_NO":999,"REV_AT_EPOCH":19570,"BSTAR":-0.001727,"MEAN_MOTION_DOT":-5.9e-6,"MEAN_MOTION_DDOT":0},{"OBJECT_NAME":"ONEWEB-0416","OBJECT_ID":"2022-012D","EPOCH":"2026-03-05T11:31:58.043424","MEAN_MOTION":13.10376463,"ECCENTRICITY":0.0002273,"INCLINATION":87.8774,"RA_OF_ASC_NODE":56.9359,"ARG_OF_PERICENTER":80.3648,"MEAN_ANOMALY":279.7736,"EPHEMERIS_TYPE":0,"CLASSIFICATION_TYPE":"U","NORAD_CAT_ID":51625,"ELEMENT_SET_NO":999,"REV_AT_EPOCH":19574,"BSTAR":-0.00033321,"MEAN_MOTION_DOT":-1.04e-6,"MEAN_MOTION_DDOT":0},{"OBJECT_NAME":"ONEWEB-0422","OBJECT_ID":"2022-012E","EPOCH":"2026-03-05T10:08:38.632704","MEAN_MOTION":13.1764916,"ECCENTRICITY":0.0001754,"INCLINATION":87.9155,"RA_OF_ASC_NODE":26.4555,"ARG_OF_PERICENTER":104.0488,"MEAN_ANOMALY":256.0839,"EPHEMERIS_TYPE":0,"CLASSIFICATION_TYPE":"U","NORAD_CAT_ID":51626,"ELEMENT_SET_NO":999,"REV_AT_EPOCH":20014,"BSTAR":0.00012022,"MEAN_MOTION_DOT":6.0e-7,"MEAN_MOTION_DDOT":0},{"OBJECT_NAME":"ONEWEB-0423","OBJECT_ID":"2022-012F","EPOCH":"2026-03-05T09:58:54.090912","MEAN_MOTION":13.17650326,"ECCENTRICITY":0.0001748,"INCLINATION":87.915,"RA_OF_ASC_NODE":26.4663,"ARG_OF_PERICENTER":81.5225,"MEAN_ANOMALY":278.6104,"EPHEMERIS_TYPE":0,"CLASSIFICATION_TYPE":"U","NORAD_CAT_ID":51627,"ELEMENT_SET_NO":999,"REV_AT_EPOCH":20003,"BSTAR":0.00011663,"MEAN_MOTION_DOT":5.8e-7,"MEAN_MOTION_DDOT":0},{"OBJECT_NAME":"ONEWEB-0425","OBJECT_ID":"2022-012G","EPOCH":"2026-03-05T11:46:19.318368","MEAN_MOTION":13.10376009,"ECCENTRICITY":0.0001684,"INCLINATION":87.8778,"RA_OF_ASC_NODE":56.9114,"ARG_OF_PERICENTER":76.0005,"MEAN_ANOMALY":284.1309,"EPHEMERIS_TYPE":0,"CLASSIFICATION_TYPE":"U","NORAD_CAT_ID":51628,"ELEMENT_SET_NO":999,"REV_AT_EPOCH":19574,"BSTAR":0.00099571,"MEAN_MOTION_DOT":3.6e-6,"MEAN_MOTION_DDOT":0},{"OBJECT_NAME":"ONEWEB-0428","OBJECT_ID":"2022-012H","EPOCH":"2026-03-05T11:17:36.588768","MEAN_MOTION":13.10375238,"ECCENTRICITY":0.0001807,"INCLINATION":87.8769,"RA_OF_ASC_NODE":56.929,"ARG_OF_PERICENTER":88.0767,"MEAN_ANOMALY":272.0567,"EPHEMERIS_TYPE":0,"CLASSIFICATION_TYPE":"U","NORAD_CAT_ID":51629,"ELEMENT_SET_NO":999,"REV_AT_EPOCH":19570,"BSTAR":-0.0016434,"MEAN_MOTION_DOT":-5.61e-6,"MEAN_MOTION_DDOT":0},{"OBJECT_NAME":"ONEWEB-0431","OBJECT_ID":"2022-012J","EPOCH":"2026-03-05T12:24:23.446656","MEAN_MOTION":13.10369941,"ECCENTRICITY":0.0002415,"INCLINATION":87.8773,"RA_OF_ASC_NODE":56.9044,"ARG_OF_PERICENTER":96.6536,"MEAN_ANOMALY":263.4866,"EPHEMERIS_TYPE":0,"CLASSIFICATION_TYPE":"U","NORAD_CAT_ID":51630,"ELEMENT_SET_NO":999,"REV_AT_EPOCH":19576,"BSTAR":0.00081461,"MEAN_MOTION_DOT":2.97e-6,"MEAN_MOTION_DDOT":0},{"OBJECT_NAME":"ONEWEB-0434","OBJECT_ID":"2022-012K","EPOCH":"2026-03-05T10:01:21.010656","MEAN_MOTION":13.10375136,"ECCENTRICITY":0.00015,"INCLINATION":87.8767,"RA_OF_ASC_NODE":56.9534,"ARG_OF_PERICENTER":66.6197,"MEAN_ANOMALY":293.5088,"EPHEMERIS_TYPE":0,"CLASSIFICATION_TYPE":"U","NORAD_CAT_ID":51631,"ELEMENT_SET_NO":999,"REV_AT_EPOCH":19573,"BSTAR":0.0015345,"MEAN_MOTION_DOT":5.48e-6,"MEAN_MOTION_DDOT":0},{"OBJECT_NAME":"ONEWEB-0435","OBJECT_ID":"2022-012L","EPOCH":"2026-03-05T12:03:04.061376","MEAN_MOTION":13.10372797,"ECCENTRICITY":0.0001803,"INCLINATION":87.8766,"RA_OF_ASC_NODE":56.9269,"ARG_OF_PERICENTER":99.0626,"MEAN_ANOMALY":261.0705,"EPHEMERIS_TYPE":0,"CLASSIFICATION_TYPE":"U","NORAD_CAT_ID":51632,"ELEMENT_SET_NO":999,"REV_AT_EPOCH":19573,"BSTAR":0.0019536,"MEAN_MOTION_DOT":6.95e-6,"MEAN_MOTION_DDOT":0},{"OBJECT_NAME":"ONEWEB-0436","OBJECT_ID":"2022-012M","EPOCH":"2026-03-05T09:46:45.305184","MEAN_MOTION":13.17650143,"ECCENTRICITY":0.000188,"INCLINATION":87.9154,"RA_OF_ASC_NODE":26.4457,"ARG_OF_PERICENTER":89.2019,"MEAN_ANOMALY":270.9328,"EPHEMERIS_TYPE":0,"CLASSIFICATION_TYPE":"U","NORAD_CAT_ID":51633,"ELEMENT_SET_NO":999,"REV_AT_EPOCH":20001,"BSTAR":4.5565e-5,"MEAN_MOTION_DOT":3.1e-7,"MEAN_MOTION_DDOT":0},{"OBJECT_NAME":"ONEWEB-0438","OBJECT_ID":"2022-012N","EPOCH":"2026-03-05T11:39:08.502048","MEAN_MOTION":13.10376648,"ECCENTRICITY":0.0001795,"INCLINATION":87.8773,"RA_OF_ASC_NODE":56.9306,"ARG_OF_PERICENTER":79.2242,"MEAN_ANOMALY":280.9087,"EPHEMERIS_TYPE":0,"CLASSIFICATION_TYPE":"U","NORAD_CAT_ID":51634,"ELEMENT_SET_NO":999,"REV_AT_EPOCH":19576,"BSTAR":0.0002145,"MEAN_MOTION_DOT":8.8e-7,"MEAN_MOTION_DDOT":0},{"OBJECT_NAME":"ONEWEB-0439","OBJECT_ID":"2022-012P","EPOCH":"2026-03-05T11:43:56.352288","MEAN_MOTION":13.10375631,"ECCENTRICITY":0.0001833,"INCLINATION":87.8768,"RA_OF_ASC_NODE":56.9196,"ARG_OF_PERICENTER":84.5925,"MEAN_ANOMALY":275.5412,"EPHEMERIS_TYPE":0,"CLASSIFICATION_TYPE":"U","NORAD_CAT_ID":51635,"ELEMENT_SET_NO":999,"REV_AT_EPOCH":19574,"BSTAR":0.00089099,"MEAN_MOTION_DOT":3.24e-6,"MEAN_MOTION_DDOT":0},{"OBJECT_NAME":"ONEWEB-0442","OBJECT_ID":"2022-012Q","EPOCH":"2026-03-05T07:46:29.788896","MEAN_MOTION":13.17647992,"ECCENTRICITY":0.0001869,"INCLINATION":87.9142,"RA_OF_ASC_NODE":26.5021,"ARG_OF_PERICENTER":62.5561,"MEAN_ANOMALY":297.5761,"EPHEMERIS_TYPE":0,"CLASSIFICATION_TYPE":"U","NORAD_CAT_ID":51636,"ELEMENT_SET_NO":999,"REV_AT_EPOCH":19999,"BSTAR":4.823e-5,"MEAN_MOTION_DOT":3.2e-7,"MEAN_MOTION_DDOT":0},{"OBJECT_NAME":"ONEWEB-0443","OBJECT_ID":"2022-012R","EPOCH":"2026-03-05T10:03:46.266336","MEAN_MOTION":13.17650725,"ECCENTRICITY":0.0001501,"INCLINATION":87.914,"RA_OF_ASC_NODE":26.4866,"ARG_OF_PERICENTER":82.1713,"MEAN_ANOMALY":277.9589,"EPHEMERIS_TYPE":0,"CLASSIFICATION_TYPE":"U","NORAD_CAT_ID":51637,"ELEMENT_SET_NO":999,"REV_AT_EPOCH":20005,"BSTAR":0.00015698,"MEAN_MOTION_DOT":7.4e-7,"MEAN_MOTION_DDOT":0},{"OBJECT_NAME":"ONEWEB-0444","OBJECT_ID":"2022-012S","EPOCH":"2026-03-05T11:29:34.248768","MEAN_MOTION":13.10376721,"ECCENTRICITY":0.0001803,"INCLINATION":87.8774,"RA_OF_ASC_NODE":56.92,"ARG_OF_PERICENTER":87.1966,"MEAN_ANOMALY":272.9368,"EPHEMERIS_TYPE":0,"CLASSIFICATION_TYPE":"U","NORAD_CAT_ID":51638,"ELEMENT_SET_NO":999,"REV_AT_EPOCH":19575,"BSTAR":-0.00070113,"MEAN_MOTION_DOT":-2.32e-6,"MEAN_MOTION_DDOT":0},{"OBJECT_NAME":"ONEWEB-0445","OBJECT_ID":"2022-012T","EPOCH":"2026-03-05T12:00:40.914720","MEAN_MOTION":13.10372897,"ECCENTRICITY":0.0002094,"INCLINATION":87.8777,"RA_OF_ASC_NODE":56.8946,"ARG_OF_PERICENTER":85.13,"MEAN_ANOMALY":275.0066,"EPHEMERIS_TYPE":0,"CLASSIFICATION_TYPE":"U","NORAD_CAT_ID":51639,"ELEMENT_SET_NO":999,"REV_AT_EPOCH":19576,"BSTAR":0.0017461,"MEAN_MOTION_DOT":6.22e-6,"MEAN_MOTION_DDOT":0}]
