ONEWEB-0411             
1 51623U 22012B   26064.47222192 -.00000507  00000+0 -14878-2 0  9994
2 51623  87.8772  56.9146 0002401  91.9549 268.1854 13.10375532195709
ONEWEB-0415             
1 51624U 22012C   26064.46890596 -.00000590  00000+0 -17270-2 0  9994
2 51624  87.8769  56.9178 0002179  88.4484 271.6893 13.10373881195709
ONEWEB-0416             
1 51625U 22012D   26064.48053291 -.00000104  00000+0 -33321-3 0  9997
2 51625  87.8774  56.9359 0002273  80.3648 279.7736 13.10376463195743
ONEWEB-0422             
1 51626U 22012E   26064.42266936  .00000060  00000+0  12022-3 0  9998
2 51626  87.9155  26.4555 0001754 104.0488 256.0839 13.17649160200144
ONEWEB-0423             
1 51627U 22012F   26064.41590383  .00000058  00000+0  11663-3 0  9991
2 51627  87.9150  26.4663 0001748  81.5225 278.6104 13.17650326200030
ONEWEB-0425             
1 51628U 22012G   26064.49050137  .00000360  00000+0  99571-3 0  9998
2 51628  87.8778  56.9114 0001684  76.0005 284.1309 13.10376009195745
ONEWEB-0428             
1 51629U 22012H   26064.47056237 -.00000561  00000+0 -16434-2 0  9995
2 51629  87.8769  56.9290 0001807  88.0767 272.0567 13.10375238195707
ONEWEB-0431             
1 51630U 22012J   26064.51693804  .00000297  00000+0  81461-3 0  9996
2 51630  87.8773  56.9044 0002415  96.6536 263.4866 13.10369941195762
ONEWEB-0434             
1 51631U 22012K   26064.41760429  .00000548  00000+0  15345-2 0  9990
2 51631  87.8767  56.9534 0001500  66.6197 293.5088 13.10375136195734
ONEWEB-0435             
1 51632U 22012L   26064.50213034  .00000695  00000+0  19536-2 0  9995
2 51632  87.8766  56.9269 0001803  99.0626 261.0705 13.10372797195738
ONEWEB-0436             
1 51633U 22012M   26064.40746881  .00000031  00000+0  45565-4 0  9993
2 51633  87.9154  26.4457 0001880  89.2019 270.9328 13.17650143200013
ONEWEB-0438             
1 51634U 22012N   26064.48551507  .00000088  00000+0  21450-3 0  9999
2 51634  87.8773  56.9306 0001795  79.2242 280.9087 13.10376648195769
ONEWEB-0439             
1 51635U 22012P   26064.48884667  .00000324  00000+0  89099-3 0  9992
2 51635  87.8768  56.9196 0001833  84.5925 275.5412 13.10375631195742
ONEWEB-0442             
1 51636U 22012Q   26064.32395589  .00000032  00000+0  48230-4 0  9995
2 51636  87.9142  26.5021 0001869  62.5561 297.5761 13.17647992199992
ONEWEB-0443             
1 51637U 22012R   26064.41928549  .00000074  00000+0  15698-3 0  9991
2 51637  87.9140  26.4866 0001501  82.1713 277.9589 13.17650725200055
ONEWEB-0444             
1 51638U 22012S   26064.47886862 -.00000232  00000+0 -70113-3 0  9990
2 51638  87.8774  56.9200 0001803  87.1966 272.9368 13.10376721195752
ONEWEB-0445             
1 51639U 22012T   26064.50047355  .00000622  00000+0  17461-2 0  9998
2 51639  87.8777  56.8946 0002094  85.1300 275.0066 13.10372897195765
